[{"OBJECT_NAME":"YAOGAN-43 01F","OBJECT_ID":"2024-148F","EPOCH":"2026-03-10T00:23:08.877408","MEAN_MOTION":15.29824616,"ECCENTRICITY":0.00057048,"INCLINATION":34.9925,"RA_OF_ASC_NODE":59.8891,"ARG_OF_PERICENTER":18.4862,"MEAN_ANOMALY":341.6062,"EPHEMERIS_TYPE":0,"CLASSIFICATION_TYPE":"U","NORAD_CAT_ID":60463,"ELEMENT_SET_NO":999,"REV_AT_EPOCH":8707,"BSTAR":0.00058388219,"MEAN_MOTION_DOT":0.00017308,"MEAN_MOTION_DDOT":0},{"OBJECT_NAME":"STARLINK-32444","OBJECT_ID":"2024-217S","EPOCH":"2026-03-09T15:28:29.449920","MEAN_MOTION":15.30185337,"ECCENTRICITY":0.0001041,"INCLINATION":53.1581,"RA_OF_ASC_NODE":194.1821,"ARG_OF_PERICENTER":71.1129,"MEAN_ANOMALY":288.9984,"EPHEMERIS_TYPE":0,"CLASSIFICATION_TYPE":"U","NORAD_CAT_ID":62073,"ELEMENT_SET_NO":999,"REV_AT_EPOCH":7341,"BSTAR":0.00098311,"MEAN_MOTION_DOT":0.00028857,"MEAN_MOTION_DDOT":0}]
